{"aisweb":{"met":{"loc":"SBRJ","metar":"","taf":"TAF SBRJ 071500Z 0718/0806 16015KT 9999 FEW015 TX25/0719Z TN22/0806Z BECMG 0723/0801 18010KT RMK PGY="}}}