{
  "aisweb": {
    "met": {
      "loc": "SBRJ",
      "metar": "2019051518 - METAR SBRJ 151800Z 20007KT 4000 RA BR BKN008 OVC050 23/22 Q1015=\n2019051518 - SPECI SBRJ 151822Z 20005KT 5000 -RA BR BKN008 BKN050 23/22 Q1015=",
      "taf": "2019051518 - TAF SBRJ 151623Z 1518/1606 17010KT 7000 BKN015 BKN030TX23/1518Z TN21/1606ZTEMPO 1521/1606 3000 RA BKN007 RMK PHI="
    }
  }
}